PROBA-1                 
1 26958U 01049B   26159.30844264  .00002818  00000+0  18405-3 0  9997
2 26958  97.9600 167.5313 0055531 151.6168 208.8103 15.07457088342282
CUTE-1 (CO-55)          
1 27844U 03031E   26159.25615715  .00000298  00000+0  14775-3 0  9992
2 27844  98.6735 167.9273 0008945 204.6801 155.3951 14.24330308190408
CUBESAT XI-IV (CO-57)   
1 27848U 03031J   26158.95900341  .00000277  00000+0  14071-3 0  9990
2 27848  98.6766 167.3539 0008515 225.8669 134.1810 14.23616071190069
APRIZESAT 4             
1 35684U 09041D   26159.15375160  .00000697  00000+0  89716-4 0  9997
2 35684  98.1412 234.2942 0043044 352.7700   7.2888 14.83867536910024
APRIZESAT 3             
1 35686U 09041F   26159.00387989  .00001495  00000+0  13325-3 0  9994
2 35686  98.2054 311.7891 0062765  97.2528 263.5833 14.96215729915008
PROBA-2                 
1 36037U 09059B   26159.09331555  .00000218  00000+0  61254-4 0  9998
2 36037  98.2451 342.5724 0012264 312.9339  47.0828 14.54858700880201
APRIZESAT 5             
1 37792U 11044E   26158.75161139  .00001317  00000+0  17320-3 0  9990
2 37792  98.2452  91.5248 0053059  34.3903 326.0724 14.81055962797393
APRIZESAT 6             
1 37793U 11044F   26159.21678542  .00000752  00000+0  11316-3 0  9995
2 37793  98.2371  69.5330 0044346 113.9029  16.1249 14.76902899795822
PROBA-V                 
1 39159U 13021A   26159.19298489  .00000078  00000+0  52071-4 0  9990
2 39159  98.3580 138.2439 0004721 145.2119 214.9370 14.23595079679833
APRIZESAT 7             
1 39416U 13066A   26159.09738263  .00001343  00000+0  13830-3 0  9998
2 39416  97.7704 112.4481 0034424 240.3619 119.4170 14.91546074679873
APRIZESAT 8             
1 39425U 13066K   26158.79209974  .00001229  00000+0  13887-3 0  9991
2 39425  97.8217 106.3914 0044905 318.3975  41.3827 14.87634950678273
BUGSAT-1 (TITA)         
1 40014U 14033E   26159.25494059  .00006597  00000+0  34912-3 0  9999
2 40014  98.0419 251.2821 0027407 209.1501 150.8201 15.15491768654482
SAUDISAT 4              
1 40016U 14033G   26159.19170754  .00000782  00000+0  10947-3 0  9999
2 40016  97.7573 305.6384 0046218 102.3417 258.2975 14.79532398644743
APRIZESAT 9             
1 40018U 14033J   26159.31603774  .00000681  00000+0  10757-3 0  9995
2 40018  97.9049 292.7321 0065107 228.0087 131.5566 14.74202863642258
APRIZESAT 10            
1 40019U 14033K   26159.07900769  .00000474  00000+0  82368-4 0  9991
2 40019  97.9639 286.2421 0077626 303.4380  55.9420 14.70875008640918
TECHDEMOSAT-1 (TDS-1)   
1 40076U 14037H   26159.23166593  .00007182  00000+0  40913-3 0  9997
2 40076  98.3816 150.5578 0004637 308.1887  51.8923 15.13162139646871
TECHNOSAT               
1 42829U 17042E   26159.00712351  .00003273  00000+0  23457-3 0  9999
2 42829  97.4268 317.0161 0018875 123.1352 237.1690 15.04900003485320
FLYING LAPTOP           
1 42831U 17042G   26159.31988279  .00003569  00000+0  28242-3 0  9995
2 42831  97.4657 315.1968 0019118 150.6529 209.5774 15.01087719485122
HAWK-A                  
1 43765U 18099H   26159.02818187  .00007426  00000+0  29991-3 0  9991
2 43765  97.3915 211.3837 0033558 319.6598  40.2151 15.24536500411708
HAWK-B                  
1 43794U 18099AN  26159.10454317  .00006926  00000+0  29600-3 0  9994
2 43794  97.3967 210.8933 0031226 338.1496  21.8406 15.22727709411654
HAWK-C                  
1 43799U 18099AT  26158.89441475  .00008636  00000+0  31201-3 0  9995
2 43799  97.3892 212.1188 0039235 320.0343  39.8010 15.27974189412496
SALSAT                  
1 46495U 20068K   26158.98778249  .00008175  00000+0  28698-3 0  9996
2 46495  97.8853 161.4934 0008911 345.1768  14.9208 15.29667638313959
HAWK-2C                 
1 47502U 21006CT  26159.02348930  .00007002  00000+0  21140-3 0  9998
2 47502  97.2283 203.5168 0005660 220.5779 139.5044 15.34554187298092
HAWK-2A                 
1 47505U 21006CW  26159.02607198  .00006903  00000+0  20837-3 0  9996
2 47505  97.2324 204.1917 0005099 224.9271 135.1561 15.34568999298093
HAWK-2B                 
1 47508U 21006CZ  26159.02208965  .00007940  00000+0  23871-3 0  9991
2 47508  97.2194 202.5343 0005642 222.6102 137.4704 15.34642979298093
HAWK-3B                 
1 48931U 21059BE  26159.01393004  .00044596  00000+0  39028-3 0  9997
2 48931  97.6670 354.8600 0003925  14.1297 346.0073 15.68782139276414
HAWK-3C                 
1 48948U 21059BX  26158.50331535  .00040974  00000+0  35937-3 0  9990
2 48948  97.6800 359.9702 0004426  15.4043 344.7352 15.68742614276336
HAWK-3A                 
1 48957U 21059CG  26159.01351049  .00042810  00000+0  37474-3 0  9998
2 48957  97.6737 357.7419 0004378  16.2021 343.9378 15.68782111276411
HAWK-5C                 
1 52754U 22057Y   26158.94862458  .00019657  00000+0  33900-3 0  9992
2 52754  97.6588 318.0232 0005407 110.2947 249.8885 15.51066355224916
HAWK-5B                 
1 52756U 22057AA  26158.94847749  .00019897  00000+0  34305-3 0  9996
2 52756  97.6598 316.3718 0006029 102.9986 257.1938 15.51066311224914
